     2              NAVIGATION DATA                         RINEX VERSION / TYPE
CCRINEXN V1.6.0 UX  CDDIS               17-AUG-16 15:33     PGM / RUN BY / DATE 
IGS BROADCAST EPHEMERIS FILE                                COMMENT             
    0.4657D-08  0.1490D-07 -0.5960D-07 -0.1192D-06          ION ALPHA           
    0.7782D+05  0.4915D+05 -0.6554D+05 -0.2621D+06          ION BETA            
   -0.931322574615D-09 0.888178419700D-15   319488     1910 DELTA-UTC: A0,A1,T,W
    17                                                      LEAP SECONDS        
                                                            END OF HEADER       
10 16  8 16 14  0  0.0-0.840970315039D-04-0.591171556152D-11 0.000000000000D+00
    0.820000000000D+02 0.265937500000D+02 0.444625663301D-08-0.258259382399D+01
    0.140815973282D-05 0.167593313381D-02 0.924989581108D-05 0.515367767143D+04
    0.223200000000D+06 0.186264514923D-08-0.262489203900D+01 0.372529029846D-08
    0.959843418680D+00 0.200531250000D+03-0.278740324893D+01-0.788282835144D-08
    0.572523847916D-09 0.000000000000D+00 0.191000000000D+04 0.000000000000D+00
    0.200000000000D+01 0.000000000000D+00 0.232830643654D-08 0.820000000000D+02
    0.216000000000D+06 0.400000000000D+01 0.000000000000D+00 0.000000000000D+00
11 16  8 16 14  0  0.0-0.659343320876D-03-0.113686837722D-11 0.000000000000D+00
    0.240000000000D+02-0.109406250000D+03 0.610596862382D-08-0.931076730695D+00
   -0.561401247978D-05 0.167423228268D-01 0.656768679619D-05 0.515367784309D+04
    0.223200000000D+06-0.311061739922D-06 0.223844327041D+01 0.147148966789D-06
    0.897607959214D+00 0.218750000000D+03 0.155787371016D+01-0.917216777189D-08
   -0.344657213499D-09 0.100000000000D+01 0.191000000000D+04 0.000000000000D+00
    0.200000000000D+01 0.000000000000D+00-0.121071934700D-07 0.240000000000D+02
    0.218370000000D+06 0.400000000000D+01 0.000000000000D+00 0.000000000000D+00
12 16  8 16 14  0  0.0 0.387597363442D-03 0.682121026330D-12 0.000000000000D+00
    0.770000000000D+02 0.129875000000D+03 0.408945605654D-08-0.164350026711D+01
    0.673159956932D-05 0.606870488264D-02 0.594742596149D-05 0.515367902183D+04
    0.223200000000D+06 0.119209289551D-06 0.573772454532D+00-0.428408384323D-07
    0.990357301911D+00 0.280531250000D+03 0.787335805708D+00-0.793033033009D-08
    0.513235664040D-09 0.000000000000D+00 0.191000000000D+04 0.000000000000D+00
    0.280000000000D+01 0.000000000000D+00-0.125728547573D-07 0.770000000000D+02
    0.216000000000D+06 0.400000000000D+01 0.000000000000D+00 0.000000000000D+00
13 16  8 16 14  0  0.0-0.379406847060D-04-0.238742359215D-11 0.000000000000D+00
    0.120000000000D+02-0.215000000000D+02 0.460483466699D-08-0.871271393208D-01
   -0.125356018543D-05 0.406333780847D-02 0.569410622120D-05 0.515367624092D+04
    0.223200000000D+06-0.279396772385D-07-0.146000513727D+01-0.484287738800D-07
    0.970518432845D+00 0.273968750000D+03 0.198084906209D+01-0.814819654795D-08
   -0.284654714154D-09 0.100000000000D+01 0.191000000000D+04 0.000000000000D+00
    0.200000000000D+01 0.000000000000D+00-0.111758708954D-07 0.120000000000D+02
    0.216960000000D+06 0.400000000000D+01 0.000000000000D+00 0.000000000000D+00
14 16  8 16 14  0  0.0-0.301594845951D-04-0.193267624127D-11 0.000000000000D+00
    0.290000000000D+02-0.228437500000D+02 0.481984362298D-08 0.137878945095D+01
   -0.122748315334D-05 0.893265020568D-02 0.524148344994D-05 0.515403850746D+04
    0.223200000000D+06-0.169500708580D-06-0.149758767096D+01-0.800937414169D-07
    0.963008124491D+00 0.278750000000D+03-0.195533550746D+01-0.830606026646D-08
   -0.266082511976D-09 0.000000000000D+00 0.191000000000D+04 0.000000000000D+00
    0.200000000000D+01 0.000000000000D+00-0.931322574616D-08 0.290000000000D+02
    0.216000000000D+06 0.400000000000D+01 0.000000000000D+00 0.000000000000D+00
15 16  8 16 14  0  0.0-0.323644839227D-03-0.147792889038D-11 0.000000000000D+00
    0.170000000000D+02-0.978125000000D+01 0.560773358461D-08 0.101199585572D+01
   -0.404193997383D-06 0.832082389388D-02 0.457465648651D-05 0.515363795281D+04
    0.223200000000D+06-0.987201929092D-07-0.163661454578D+01 0.108033418655D-06
    0.929905070827D+00 0.274875000000D+03 0.491522483667D+00-0.867464704815D-08
   -0.231795369493D-09 0.000000000000D+00 0.191000000000D+04 0.000000000000D+00
    0.200000000000D+01 0.000000000000D+00-0.107102096081D-07 0.170000000000D+02
    0.216000000000D+06 0.400000000000D+01 0.000000000000D+00 0.000000000000D+00
16 16  8 16 14  0  0.0 0.136019662023D-05 0.204636307899D-11 0.000000000000D+00
    0.460000000000D+02 0.118062500000D+03 0.400480967354D-08 0.264117489362D+01
    0.614672899246D-05 0.867607351392D-02 0.646337866783D-05 0.515354830360D+04
    0.223200000000D+06-0.184401869774D-06 0.592567316499D+00-0.838190317154D-07
    0.990845770258D+00 0.270843750000D+03 0.388826591251D+00-0.775425156713D-08
    0.422517599554D-09 0.000000000000D+00 0.191000000000D+04 0.000000000000D+00
    0.200000000000D+01 0.000000000000D+00-0.107102096081D-07 0.460000000000D+02
    0.220170000000D+06 0.400000000000D+01 0.000000000000D+00 0.000000000000D+00
17 16  8 16 14  0  0.0-0.203385949135D-03 0.227373675443D-12 0.000000000000D+00
    0.540000000000D+02-0.590625000000D+02 0.452876006961D-08 0.176349407009D+01
   -0.333040952682D-05 0.110792691121D-01 0.221282243729D-05 0.515373082924D+04
    0.223200000000D+06-0.175088644028D-06 0.161341372127D+01-0.286847352982D-06
    0.976889427914D+00 0.347687500000D+03-0.192624633674D+01-0.829355974577D-08
   -0.230009580822D-09 0.100000000000D+01 0.191000000000D+04 0.000000000000D+00
    0.200000000000D+01 0.000000000000D+00-0.107102096081D-07 0.540000000000D+02
    0.220650000000D+06 0.400000000000D+01 0.000000000000D+00 0.000000000000D+00
18 16  8 16 14  0  0.0 0.547909643501D-03 0.386535248253D-11 0.000000000000D+00
    0.260000000000D+02 0.315312500000D+02 0.507699719160D-08-0.295862416255D+01
    0.169686973095D-05 0.172602850944D-01 0.924989581108D-05 0.515370817375D+04
    0.223200000000D+06 0.229105353355D-06-0.265680840717D+01-0.117346644402D-06
    0.925362827225D+00 0.178375000000D+03-0.186482028790D+01-0.796426031484D-08
    0.601810782120D-09 0.000000000000D+00 0.191000000000D+04 0.000000000000D+00
    0.200000000000D+01 0.000000000000D+00-0.111758708954D-07 0.260000000000D+02
    0.216000000000D+06 0.400000000000D+01 0.000000000000D+00 0.000000000000D+00
19 16  8 16 14  0  0.0-0.524112023413D-03 0.341060513165D-12 0.000000000000D+00
    0.890000000000D+02-0.661875000000D+02 0.460412019621D-08-0.140775095427D+01
   -0.326521694660D-05 0.106468928279D-01 0.181980431080D-05 0.515362683106D+04
    0.223200000000D+06 0.135973095894D-06 0.166201131859D+01 0.409781932831D-07
    0.974036231490D+00 0.348031250000D+03 0.845482278942D+00-0.832498958658D-08
   -0.187150656083D-09 0.100000000000D+01 0.191000000000D+04 0.000000000000D+00
    0.280000000000D+01 0.000000000000D+00-0.149011611938D-07 0.890000000000D+02
    0.216000000000D+06 0.000000000000D+00 0.000000000000D+00 0.000000000000D+00
20 16  8 16 14  0  0.0 0.430362299085D-03 0.216004991671D-11 0.000000000000D+00
    0.580000000000D+02 0.245000000000D+02 0.522093175848D-08 0.903502054693D+00
    0.127963721752D-05 0.463349174242D-02 0.997632741928D-05 0.515378201485D+04
    0.223200000000D+06 0.558793544769D-08-0.270848263385D+01-0.838190317154D-07
    0.926691900003D+00 0.175281250000D+03 0.141990425301D+01-0.835356224511D-08
    0.478234206089D-09 0.100000000000D+01 0.191000000000D+04 0.000000000000D+00
    0.200000000000D+01 0.000000000000D+00-0.838190317154D-08 0.580000000000D+02
    0.216000000000D+06 0.400000000000D+01 0.000000000000D+00 0.000000000000D+00
21 16  8 16 14  0  0.0-0.530523248017D-03-0.682121026330D-12 0.000000000000D+00
    0.380000000000D+02-0.118031250000D+03 0.457590489052D-08-0.201363536765D+01
   -0.604800879955D-05 0.233805538155D-01 0.101830810308D-04 0.515357560539D+04
    0.223200000000D+06 0.430271029472D-06 0.258521743591D+01 0.707805156708D-07
    0.937386052063D+00 0.163750000000D+03-0.176865406743D+01-0.774139388870D-08
   -0.157506560781D-09 0.000000000000D+00 0.191000000000D+04 0.000000000000D+00
    0.200000000000D+01 0.000000000000D+00-0.977888703346D-08 0.380000000000D+02
    0.216210000000D+06 0.400000000000D+01 0.000000000000D+00 0.000000000000D+00
22 16  8 16 14  0  0.0 0.270139425993D-03-0.966338120634D-11 0.000000000000D+00
    0.950000000000D+02 0.267500000000D+02 0.535200864693D-08 0.127066617049D+01
    0.128149986267D-05 0.755295308773D-02 0.924617052078D-05 0.515375285912D+04
    0.223200000000D+06-0.149011611938D-06-0.265633149441D+01-0.912696123123D-07
    0.923290934385D+00 0.186250000000D+03-0.187743266057D+01-0.847106713966D-08
    0.417517391275D-09 0.100000000000D+01 0.191000000000D+04 0.000000000000D+00
    0.200000000000D+01 0.000000000000D+00-0.176951289177D-07 0.950000000000D+02
    0.216018000000D+06 0.400000000000D+01 0.000000000000D+00 0.000000000000D+00
23 16  8 16 14  0  0.0-0.186346471310D-03-0.147792889038D-11 0.000000000000D+00
    0.103000000000D+03-0.163750000000D+02 0.521378860379D-08 0.465229265386D+00
   -0.735744833946D-06 0.111452279380D-01 0.494159758091D-05 0.515362209129D+04
    0.223200000000D+06-0.502914190292D-07-0.157753006996D+01 0.249594449997D-06
    0.945115144205D+00 0.276687500000D+03-0.253830136052D+01-0.853428405861D-08
   -0.197865384745D-09 0.100000000000D+01 0.191000000000D+04 0.000000000000D+00
    0.280000000000D+01 0.000000000000D+00-0.200234353542D-07 0.103000000000D+03
    0.216000000000D+06 0.400000000000D+01 0.000000000000D+00 0.000000000000D+00
